# From MPEC 2016-EI8
332P-B/Ikeya-Murakami,e,9.3805,3.8028,152.3711,3.082329,0.1821317,0.48970701,359.9699,03/17.0/2016,2000,g 19.0,4.0
# From MPEC 2016-K18
332P-C/Ikeya-Murakami,e,9.3825,152.3011,3.7379,3.086666,0.1817480,0.48952644,190.2624,06/30.0/2024,2000,g 16.5,4.0
# From MPEC 2016-ED0
332P-D/Ikeya-Murakami,e,9.3761,3.7923,152.4393,3.081138,0.1822373,0.48977814,359.9486,03/17.0/2016,2000,g 19.0,4.0
# From MPEC 2016-ED0
332P-E/Ikeya-Murakami,e,9.3774,3.8228,152.2825,3.079877,0.1823493,0.48922008,359.9889,03/17.0/2016,2000,g 21.0,4.0
# From MPEC 2016-ED0
332P-F/Ikeya-Murakami,e,9.5293,3.4757,152.8203,3.163214,0.1751908,0.49918860,359.8501,03/17.0/2016,2000,g 21.0,4.0
# From MPEC 2016-ED0
332P-G/Ikeya-Murakami,e,9.2523,3.6955,154.4000,3.050519,0.1849880,0.49200362,359.9006,03/19.0/2016,2000,g 19.0,4.0
# From MPC100285
332P-H/Ikeya-Murakami,e,9.3830,152.3017,3.7376,3.086847,0.1817320,0.48956214,190.1804,06/30.0/2024,2000,g 19.0,4.0
# From MPEC 2016-ED0
332P-I/Ikeya-Murakami,e,9.3791,3.8048,152.3297,3.081767,0.1821815,0.48955490,359.9360,03/17.0/2016,2000,g 20.5,2.0
# From MPEC 2016-EI8
332P-J/Ikeya-Murakami,e,9.4296,3.6729,152.7712,3.115165,0.1792596,0.49429435,359.8613,03/17.0/2016,2000,g 20.5,2.0
# From MPEC 2024-MB8
333P/LINEAR,e,132.0217,115.7051,26.0163,4.220341,0.1136797,0.73628426,342.6866,06/30.0/2024,2000,g 15.0,4.0
# From MPEC 2023-J29
334P/NEAT,e,20.3734,90.4617,90.0362,6.828837,0.0552311,0.35122484,142.7103,06/30.0/2024,2000,g 10.5,4.0
# From MPEC 2023-M14
335P/Gibbs,e,7.2945,330.8119,162.3013,3.577653,0.1456487,0.54656027,100.1851,06/30.0/2024,2000,g 16.8,4.0
# From MPC105244
336P/McNaught,e,17.8281,298.2113,308.6291,5.037895,0.0871627,0.44413762,236.4241,06/30.0/2024,2000,g 13.5,4.0
# From MPEC 2024-A43
337P/WISE,e,15.6141,104.7412,162.6078,3.296789,0.1646521,0.49924794,119.7381,06/30.0/2024,2000,g 17.0,4.0
# From MPEC 2023-J29
338P/McNaught,e,25.3865,9.7934,4.5774,3.892020,0.1283635,0.41217655,355.6369,06/30.0/2024,2000,g 12.0,4.0
# From MPC101101
339P/Gibbs,e,5.7332,27.4739,172.6894,3.699794,0.1384962,0.63564719,42.1131,06/30.0/2024,2000,g 17.0,4.0
# From MPC133426
340P/Boattini,e,2.0786,291.6639,36.0602,4.248583,0.1125480,0.28029471,312.1438,06/30.0/2024,2000,g 14.3,4.0
# From MPEC 2023-J29
341P/Gibbs,e,3.7964,29.9611,312.3387,4.287380,0.1110238,0.41538461,327.0659,06/30.0/2024,2000,g 12.5,4.0
# From MPC101101
342P/SOHO,e,11.6946,73.3216,27.6341,3.041096,0.1858484,0.98293399,0.0000,02/07.5298/2027,2000,g  9.0,4.0
# From MPEC 2023-J29
343P/NEAT-LONEOS,e,5.5969,257.0590,137.5886,5.457469,0.0773067,0.58519624,209.0662,06/30.0/2024,2000,g 14.0,4.0
# From MPEC 2023-J29
344P/Read,e,3.4989,273.1006,140.5668,4.857221,0.0920709,0.42378415,256.9267,06/30.0/2024,2000,g 13.0,4.0
# From MPEC 2022-K19
345P/LINEAR,e,2.7280,154.5950,196.6776,4.031481,0.1217607,0.22120552,352.4490,06/30.0/2024,2000,g 12.0,4.0
# From MPEC 2022-K19
346P/Catalina,e,22.2177,102.4558,336.0239,4.470241,0.1042816,0.50386591,280.5194,06/30.0/2024,2000,g 14.0,4.0
# From MPEC 2024-M41
347P/PANSTARRS,e,11.7641,260.9880,98.3020,3.605221,0.1439813,0.38682997,49.8618,06/30.0/2024,2000,g 15.0,4.0
# From MPEC 2022-ED3
348P/PANSTARRS,e,17.7383,312.9268,135.7231,3.151885,0.1761362,0.30739767,152.8879,06/30.0/2024,2000,g 14.0,4.0
# From MPEC 2024-LE0
349P/Lemmon,e,5.4885,331.7488,255.7878,3.578540,0.1455946,0.29856961,4.9360,06/30.0/2024,2000,g 14.0,4.0
# From MPC111775
350P/McNaught,e,7.3639,65.2933,139.9719,4.081338,0.1195364,0.09445699,285.2881,06/30.0/2024,2000,g 14.0,4.0
# From MPC105244
351P/Wiegert-PANSTARRS,e,12.7751,352.6789,283.3160,4.440678,0.1053247,0.29476780,331.6243,06/30.0/2024,2000,g 12.5,4.0
# From MPEC 2023-J29
352P/Skiff,e,21.0117,28.0155,309.4049,6.652743,0.0574385,0.61671169,147.3850,06/30.0/2024,2000,g 13.2,4.0
# From MPEC 2020-AA5
353P/McNaught,e,28.4167,121.5253,230.4912,4.170657,0.1157170,0.46994421,275.3703,06/30.0/2024,2000,g 14.5,4.0
# From MPEC 2024-EF7
354P/LINEAR,e,5.2508,320.0705,132.8196,2.289883,0.2844357,0.12449434,73.9622,06/30.0/2024,2000,g 15.5,4.0
# From MPEC 2023-CD7
355P/LINEAR-NEAT,e,11.0468,51.4340,336.3200,3.470065,0.1524747,0.50815990,13.6636,06/30.0/2024,2000,g 15.5,2.0
# From MPEC 2022-F14
356P/WISE,e,9.6403,160.8078,226.1498,4.154156,0.1164072,0.35605404,277.1111,06/30.0/2024,2000,g 14.0,4.0
# From MPC114609
357P/Hill,e,6.3143,44.5793,1.4580,4.455937,0.1047841,0.43613630,232.5614,06/30.0/2024,2000,g 15.5,4.0
# From MPEC 2024-EF7
358P/PANSTARRS,e,11.0657,85.6654,299.5429,3.148674,0.1764056,0.23967786,41.0622,06/30.0/2024,2000,g 18.0,4.0
# From MPC110086
359P/LONEOS,e,10.2633,149.7685,200.2967,4.641387,0.0985672,0.32350607,246.6372,06/30.0/2024,2000,g 13.5,4.0
# From MPC108599
360P/WISE,e,24.1087,2.2122,354.2420,3.696943,0.1386564,0.49913355,346.7239,06/30.0/2024,2000,g 19.5,6.0
# From MPEC 2023-CD7
361P/Spacewatch,e,13.9017,203.2523,219.0681,4.933489,0.0899441,0.43957866,196.5883,06/30.0/2024,2000,g 12.0,4.0
# From MPC114609
363P/Lemmon,e,5.3895,146.6421,340.8654,3.576207,0.1457371,0.51881892,340.1525,06/30.0/2024,2000,g 17.5,4.0
# From MPEC 2024-M41
364P/PANSTARRS,e,12.1117,46.1445,212.2002,2.888328,0.2007864,0.72162351,82.8826,06/30.0/2024,2000,g 17.0,2.0
# From MPC111775
365P/PANSTARRS,e,9.8498,86.6565,67.4258,3.156446,0.1757545,0.58144267,46.5044,06/30.0/2024,2000,g 17.0,4.0
# From MPC114610
366P/Spacewatch,e,8.8569,70.7231,153.0164,3.498834,0.1505979,0.34837624,327.6275,06/30.0/2024,2000,g 15.0,4.0
# From MPC112395
367P/Catalina,e,8.4597,58.6611,172.7187,3.510484,0.1498489,0.27990467,330.6810,06/30.0/2024,2000,g 17.5,2.0
# From MPC114610
368P/NEAT,e,15.4818,257.8624,118.9643,5.532935,0.0757305,0.62625503,160.0947,06/30.0/2024,2000,g 14.0,4.0
# From MPC114610
369P/Hill,e,10.3224,47.2967,13.1978,4.379637,0.1075343,0.55592588,223.7981,06/30.0/2024,2000,g 15.0,4.0
# From MPEC 2021-F20
370P/NEAT,e,19.4236,55.0815,356.7498,6.437693,0.0603405,0.61549841,133.3241,06/30.0/2024,2000,g 13.0,4.0
# From MPC114610
371P/LINEAR-Skiff,e,17.3851,67.2831,308.5665,4.180468,0.1153099,0.47688352,241.2780,06/30.0/2024,2000,g 16.0,4.0
# From MPEC 2020-K19
372P/McNaught,e,9.5069,27.5516,326.0199,4.511056,0.1028695,0.15170377,213.5352,06/30.0/2024,2000,g 13.5,4.0
# From MPEC 2021-F20
373P/Rinner,e,13.7703,231.9444,221.0671,3.798484,0.1331339,0.39364560,253.9041,06/30.0/2024,2000,g 14.5,4.0
# From MPC114610
374P/Larson,e,10.7645,7.8989,51.5178,4.971037,0.0889270,0.46377288,177.3378,06/30.0/2024,2000,g 14.0,4.0
# From MPEC 2021-F20
375P/Hill,e,17.3671,359.8850,119.3914,5.546646,0.0754498,0.65984892,152.1572,06/30.0/2024,2000,g 16.0,4.0
# From MPEC 2022-K19
376P/LONEOS,e,1.1663,312.8684,285.4096,5.757187,0.0713491,0.51392810,124.8517,06/30.0/2024,2000,g 12.5,4.0
# From MPEC 2022-N37
377P/Scotti,e,9.0250,226.0255,354.8786,6.697213,0.0568673,0.25110681,82.5409,06/30.0/2024,2000,g  9.5,4.0
# From MPEC 2024-D33
378P/McNaught,e,19.1424,93.8201,193.3942,6.292853,0.0624357,0.46501168,84.8036,06/30.0/2024,2000,g 12.0,4.0
# From MPC115889
379P/Spacewatch,e,12.4416,30.5208,184.3513,3.489103,0.1512284,0.34986582,268.9138,06/30.0/2024,2000,g 15.0,4.0
# From MPEC 2023-C45
380P/PANSTARRS,e,8.0174,128.0901,87.9091,4.427040,0.1058118,0.33709080,201.2027,06/30.0/2024,2000,g 12.5,4.0
# From MPEC 2021-J28
381P/LINEAR-Spacewatch,e,28.3582,173.2954,173.8503,7.143630,0.0516209,0.68108837,89.7509,06/30.0/2024,2000,g 17.5,2.0
# From MPEC 2024-MB8
382P/Larson,e,8.2711,171.8664,162.3069,5.943133,0.0680269,0.27067646,64.9874,06/30.0/2024,2000,g  8.0,4.0
# From MPEC 2022-OB6
383P/Christensen,e,12.3204,207.8521,133.7532,3.548130,0.1474704,0.59875589,251.9872,06/30.0/2024,2000,g 18.0,4.0
# From MPEC 2022-OB6
384P/Kowalski,e,7.2833,354.1997,37.7118,2.898250,0.1997562,0.61628813,343.7912,06/30.0/2024,2000,g 19.5,4.0
# From MPEC 2021-F20
385P/Hill,e,16.8271,357.0628,44.4106,4.288774,0.1109697,0.40210573,193.9811,06/30.0/2024,2000,g 13.0,4.0
# From MPEC 2021-L04
386P/PANSTARRS,e,15.2413,134.9170,353.0814,4.050262,0.1209148,0.41712174,170.5219,06/30.0/2024,2000,g 14.5,4.0
# From MPEC 2021-J28
387P/Boattini,e,8.9364,259.2422,162.8305,4.797125,0.0938064,0.73710370,164.7923,06/30.0/2024,2000,g 15.0,4.0
# From MPEC 2021-S45
388P/Gibbs,e,23.8886,37.0289,42.3258,5.240573,0.0821554,0.61930467,147.9774,06/30.0/2024,2000,g 13.0,4.0
# From MPEC 2022-OB6
389P/Siding Spring,e,160.0854,218.8787,249.3768,5.632359,0.0737341,0.70517262,121.1584,06/30.0/2024,2000,g 16.0,4.0
# From MPEC 2024-EF7
390P/Gibbs,e,18.5363,152.2350,232.4947,5.815335,0.0702817,0.70714776,109.6498,06/30.0/2024,2000,g 12.0,4.0
# From MPEC 2021-F20
391P/Kowalski,e,21.2601,124.7862,187.1629,4.688812,0.0970756,0.11871886,222.8619,06/30.0/2024,2000,g  8.0,4.0
# From MPEC 2021-J28
392P/LINEAR,e,4.9311,24.8427,71.9033,6.140973,0.0647662,0.68380064,100.3762,06/30.0/2024,2000,g 14.5,4.0
# From MPEC 2023-T65
393P/Spacewatch-Hill,e,16.7869,36.3939,329.1884,4.797642,0.0937913,0.11974722,159.7474,06/30.0/2024,2000,g 11.0,4.0
# From MPEC 2020-KB7
394P/PANSTARRS,e,8.5293,98.1226,54.4038,4.328182,0.1094576,0.36788434,183.2653,06/30.0/2024,2000,g 16.0,2.4
# From MPEC 2024-MB8
395P/Catalina-NEAT,e,3.5811,221.0321,100.0650,7.189674,0.0511258,0.41430709,44.0041,06/30.0/2024,2000,g 10.0,4.0
# From MPEC 2020-KB7
396P/,e,5.4400,136.6216,8.3083,6.800105,0.0555815,0.41649777,98.2694,06/30.0/2024,2000,g 12.0,4.0
# From MPEC 2022-OB6
397P/Lemmon,e,10.9245,8.2236,14.5657,3.831420,0.1314209,0.40496981,193.2918,06/30.0/2024,2000,g 12.0,4.0
# From MPEC 2021-L04
398P/Boattini,e,11.0233,320.1454,127.5115,3.125372,0.1783822,0.58362969,228.3695,06/30.0/2024,2000,g 15.5,4.0
# From MPEC 2023-XP6
399P/PANSTARRS,e,13.3207,207.1289,214.4047,3.793123,0.1334162,0.44743783,151.2491,06/30.0/2024,2000,g 14.0,4.0
# From MPEC 2022-ED3
400P/PANSTARRS,e,10.9289,176.3991,238.8719,3.561944,0.1466133,0.40971707,181.0563,06/30.0/2024,2000,g 15.5,2.8
# From MPEC 2022-K19
401P/McNaught,e,12.8012,359.9125,309.4122,5.777831,0.0709671,0.57865523,118.4408,06/30.0/2024,2000,g 12.5,4.0
# From MPEC 2024-LE0
